1 18688U 63014DM  22093.39258937  .00000001  00000-0 -10152-2 0  9990
2 18688  87.3609 348.8378 0036109 208.8453 294.6494  8.65096170986504
1 18688U 63014DM  22093.39258937  .00000001  00000-0 -10152-2 0  9990
2 18688  87.3609 348.8378 0036109 208.8453 294.6494  8.65096170986616
1 18688U 63014DM  22094.20708167  .00000003  00000-0 -52225-4 0  9997
2 18688  87.3608 348.7609 0035965 207.9122 311.3669  8.65096164986572
1 18688U 63014DM  22098.13725645 -.00000001  00000-0 -17096-2 0  9997
2 18688  87.3600 348.3900 0036003 203.8560 311.3669  8.65096090987028
1 18688U 63014DM  22098.36812027 -.00000003  00000-0 -28247-2 0  9995
2 18688  87.3598 348.3682 0036005 203.6034 310.3756  8.65096068986937
1 18688U 63014DM  22099.40015751 -.00000009  00000-0 -55061-2 0  9990
2 18688  87.3594 348.2707 0036073 202.6422 284.4135  8.65096029987025
1 18688U 63014DM  22102.18589316  .00000010  00000-0  33650-2 0  9993
2 18688  87.3587 348.0073 0036083 199.7108 320.2697  8.65096257987372
1 18688U 63014DM  22102.41331845  .00000008  00000-0  25733-2 0  9991
2 18688  87.3591 347.9861 0036082 199.5301 308.5023  8.65096246987282
1 18688U 63014DM  22103.33633762  .00000012  00000-0  44033-2 0  9995
2 18688  87.3589 347.8988 0036106 198.5495 303.1494  8.65096241987365
1 18688U 63014DM  22104.37365431  .00000028  00000-0  11753-1 0  9994
2 18688  87.3587 347.8007 0036047 197.3782 293.8328  8.65096319987452
1 18688U 63014DM  22104.37365431  .00000028  00000-0  11753-1 0  9994
2 18688  87.3587 347.8007 0036047 197.3782 293.8328  8.65096319987564
1 18688U 63014DM  22105.30059925  .00000019  00000-0  77341-2 0  9992
2 18688  87.3585 347.7130 0036098 196.4498 300.6500  8.65096243987530
1 18688U 63014DM  22108.30882080  .00000027  00000-0  11156-1 0  9991
2 18688  87.3578 347.4285 0036126 193.2912 309.4076  8.65096399987793
1 18688U 63014DM  22108.30882080  .00000027  00000-0  11156-1 0  9991
2 18688  87.3578 347.4285 0036126 193.2912 309.4076  8.65096399987906
1 18688U 63014DM  22109.35716649  .00000020  00000-0  79553-2 0  9993
2 18688  87.3576 347.3293 0036139 192.1795 334.3702  8.65096434987883
1 18688U 63014DM  22110.39981015  .00000003  00000-0  30096-3 0  9991
2 18688  87.3573 347.2306 0036114 191.0076 341.6401  8.65096402987979
1 18688U 63014DM  22110.39981015  .00000003  00000-0  30096-3 0  9991
2 18688  87.3573 347.2306 0036114 191.0076 341.6401  8.65096402988082
1 18688U 63014DM  22111.43861373 -.00000005  00000-0 -38998-2 0  9993
2 18688  87.3570 347.1324 0036116 189.8726 336.9179  8.65096402988064
1 18688U 63014DM  22112.13250823 -.00000015  00000-0 -84438-2 0  9994
2 18688  87.3568 347.0667 0036128 189.1512 337.9649  8.65096357988128
1 18688U 63014DM  22113.28943723 -.00000022  00000-0 -11680-1 0  9995
2 18688  87.3565 346.9573 0036128 187.8805 341.1416  8.65096293988228
1 18688U 63014DM  22113.28943723 -.00000022  00000-0 -11680-1 0  9995
2 18688  87.3565 346.9573 0036128 187.8805 341.1416  8.65096293988330
1 18688U 63014DM  22115.25802170  .00000007  00000-0  17206-2 0  9996
2 18688  87.3555 346.7709 0036252 185.8673 352.0154  8.65096347988393
1 18688U 63014DM  22116.16623737  .00000026  00000-0  10839-1 0  9992
2 18688  87.3557 346.6849 0036253 184.9486 300.5144  8.65096449988583
1 18688U 63014DM  22116.28615799  .00000032  00000-0  13479-1 0  9994
2 18688  87.3557 346.6736 0036248 184.8042 314.0118  8.65096488988482
1 18688U 63014DM  22117.32931907  .00000008  00000-0  23283-2 0  9990
2 18688  87.3550 346.5747 0036278 183.8540 322.6711  8.65096412988572
1 18688U 63014DM  22118.37151810  .00000040  00000-0  17281-1 0  9999
2 18688  87.3552 346.4761 0036287 182.7816 328.4574  8.65096492988662
1 18688U 63014DM  22118.37151810  .00000040  00000-0  17281-1 0  9999
2 18688  87.3552 346.4761 0036287 182.7816 328.4574  8.65096492988774
1 18688U 63014DM  22119.41101014  .00000028  00000-0  11658-1 0  9994
2 18688  87.3549 346.3777 0036272 181.7456 325.7791  8.65096428988757
1 18688U 63014DM  22120.34452439  .00000040  00000-0  17627-1 0  9994
2 18688  87.3547 346.2893 0036291 180.7832 353.0843  8.65096567988836
1 18688U 63014DM  22121.13936490  .00000032  00000-0  13903-1 0  9990
2 18688  87.3544 346.2141 0036307 179.9410 308.5311  8.65096575989014
1 18688U 63014DM  22121.25800091  .00000031  00000-0  13225-1 0  9996
2 18688  87.3544 346.2028 0036311 179.8192 318.0065  8.65096574988918
1 18688U 63014DM  22122.18762429  .00000012  00000-0  44010-2 0  9997
2 18688  87.3542 346.1148 0036332 178.9275 333.1271  8.65096507988994
1 18688U 63014DM  22123.11490098  .00000021  00000-0  83498-2 0  9994
2 18688  87.3539 346.0269 0036351 177.9583 341.0205  8.65096669989079
1 18688U 63014DM  22124.15285015  .00000002  00000-0 -53007-3 0  9994
2 18688  87.3536 345.9286 0036378 176.8861 333.5763  8.65096606989277
1 18688U 63014DM  22124.27573566  .00000000  00000-0 -14318-2 0  9997
2 18688  87.3536 345.9169 0036384 176.7560 356.2901  8.65096594989170
1 18688U 63014DM  22125.32070979 -.00000005  00000-0 -38449-2 0  9991
2 18688  87.3533 345.8179 0036411 175.6711  10.7298  8.65096595989266
1 18688U 63014DM  22125.67174206 -.00000011  00000-0 -67453-2 0  9991
2 18688  87.3533 345.7847 0036418 175.3126  23.9693  8.65096562989293
1 18688U 63014DM  22126.24225480  .00000003  00000-0 -11164-3 0  9995
2 18688  87.3530 345.7305 0036484 174.7627   0.7150  8.65096469989344
1 18688U 63014DM  22126.24225480  .00000003  00000-0 -11164-3 0  9995
2 18688  87.3530 345.7305 0036484 174.7627   0.7150  8.65096469989456
1 18688U 63014DM  22129.24928333 -.00000003  00000-0 -27489-2 0  9992
2 18688  87.3524 345.4456 0036587 171.4613   5.9023  8.65096434989601
1 18688U 63014DM  22129.24928333 -.00000003  00000-0 -27489-2 0  9992
2 18688  87.3524 345.4456 0036587 171.4613   5.9023  8.65096434989713
1 18688U 63014DM  22130.28712802  .00000015  00000-0  58111-2 0  9997
2 18688  87.3522 345.3472 0036626 170.2390 358.2813  8.65096494989695
1 18688U 63014DM  22131.20479900  .00000041  00000-0  17696-1 0  9990
2 18688  87.3520 345.2602 0036608 169.5437 335.9960  8.65096684989775
1 18688U 63014DM  22132.24085049  .00000038  00000-0  16339-1 0  9991
2 18688  87.3518 345.1619 0036668 168.3227 322.7910  8.65096658989869
1 18688U 63014DM  22132.24085049  .00000038  00000-0  16339-1 0  9991
2 18688  87.3518 345.1619 0036668 168.3227 322.7910  8.65096658989971
1 18688U 63014DM  22133.28569111 -.00000007  00000-0 -48363-2 0  9994
2 18688  87.3512 345.0625 0036580 167.6032 336.4497  8.65096380989952
1 18688U 63014DM  22135.24924111 -.00000003  00000-0 -26030-2 0  9990
2 18688  87.3510 344.8762 0036604 165.6563 331.5854  8.65096420990122
1 18688U 63014DM  22135.24924111 -.00000003  00000-0 -26030-2 0  9990
2 18688  87.3510 344.8762 0036604 165.6563 331.5854  8.65096420990234
1 18688U 63014DM  22137.22692038  .00000000  00000-0 -15597-2 0  9992
2 18688  87.3507 344.6886 0036616 163.5992  10.8194  8.65096431990293
1 18688U 63014DM  22138.26516519 -.00000002  00000-0 -23303-2 0  9993
2 18688  87.3506 344.5900 0036593 162.3970   4.4238  8.65096411990381
1 18688U 63014DM  22138.26516519 -.00000002  00000-0 -23303-2 0  9993
2 18688  87.3506 344.5900 0036593 162.3970   4.4238  8.65096411990493
1 18688U 63014DM  22141.15024515  .00000002  00000-0 -65217-3 0  9995
2 18688  87.3499 344.3162 0036592 159.4143 349.6260  8.65096477990749
1 18688U 63014DM  22141.26439130 -.00000002  00000-0 -23208-2 0  9994
2 18688  87.3499 344.3054 0036605 159.2595 345.1555  8.65096435990644
1 18688U 63014DM  22143.24109527 -.00000001  00000-0 -18044-2 0  9999
2 18688  87.3495 344.1178 0036700 157.4255  21.1317  8.65096450990817
1 18688U 63014DM  22143.24109527 -.00000001  00000-0 -18044-2 0  9999
2 18688  87.3495 344.1178 0036700 157.4255  21.1317  8.65096450990929
1 18688U 63014DM  22149.13231514  .00000004  00000-0  58226-3 0  9993
2 18688  87.3491 343.5582 0036859 151.3707   8.5253  8.65096487991320
1 18688U 63014DM  22149.13231514  .00000004  00000-0  58226-3 0  9993
2 18688  87.3491 343.5582 0036859 151.3707   8.5253  8.65096487991432
1 18688U 63014DM  22149.60604729  .00000019  00000-0  75049-2 0  9994
2 18688  87.3492 343.5134 0036924 151.0420  43.7414  8.65096596991361
1 18688U 63014DM  22155.26142784 -.00000017  00000-0 -94077-2 0  9993
2 18688  87.3490 342.9764 0037029 145.4652  16.4139  8.65096504991856
1 18688U 63014DM  22155.26142784 -.00000017  00000-0 -94077-2 0  9993
2 18688  87.3490 342.9764 0037029 145.4652  16.4139  8.65096504991968
1 18688U 63014DM  22162.60987767  .00000022  00000-0  91083-2 0  9995
2 18688  87.3485 342.2783 0037074 138.0285 222.0349  8.65096648992481
1 18688U 63014DM  22162.60987767  .00000022  00000-0  91083-2 0  9995
2 18688  87.3485 342.2783 0037074 138.0285 222.0349  8.65096648992605
1 18688U 63014DM  22165.61483398 -.00000009  00000-0 -55517-2 0  9999
2 18688  87.3485 341.9927 0037084 135.0156 220.4856  8.65096665992745
1 18688U 63014DM  22165.61483398 -.00000009  00000-0 -55517-2 0  9999
2 18688  87.3485 341.9927 0037084 135.0156 220.4856  8.65096665992868
1 18688U 63014DM  22168.62201825 -.00000018  00000-0 -97583-2 0  9995
2 18688  87.3480 341.7071 0037124 132.0226 225.8516  8.65096587993003
1 18688U 63014DM  22170.58792507  .00000000  00000-0 -13985-2 0  9999
2 18688  87.3481 341.5202 0037134 130.0632 228.3367  8.65096555993173
1 18688U 63014DM  22173.01979267  .00000023  00000-0  91900-2 0  9997
2 18688  87.3482 341.2891 0037144 127.6438 241.9739  8.65096585993393
1 18688U 63014DM  22173.01979267  .00000023  00000-0  91900-2 0  9997
2 18688  87.3482 341.2891 0037144 127.6438 241.9739  8.65096585993506
1 18688U 63014DM  22175.56466323  .00000021  00000-0  84081-2 0  9993
2 18688  87.3484 341.0473 0037162 125.1606 247.4921  8.65096658993619
1 18688U 63014DM  22175.56466323  .00000021  00000-0  84081-2 0  9993
2 18688  87.3484 341.0473 0037162 125.1606 247.4921  8.65096658993721
1 18688U 63014DM  22178.57171345 -.00000009  00000-0 -53879-2 0  9993
2 18688  87.3487 340.7616 0037139 122.2901 252.3181  8.65096618993874
